start=new Date('2022-12-21T00:00:00.000Z').valueOf();
sats=[{"CLASSIFICATION_TYPE":"U","OBJECT_TYPE":"PAYLOAD","ECCENTRICITY":"0.00015390","ELEMENT_SET_NO":"999","OBJECT_NAME":"STARLINK-5010","INCLINATION":"53.2166","APOAPSIS":"383.198","PERIAPSIS":"381.118","PERIOD":"92.195","TLE_LINE1":"1 53930U 22119AW  22354.58334491 -.01141244  00000-0 -14247-1 0  9996","COUNTRY_CODE":"US","RCS_SIZE":"LARGE","ARG_OF_PERICENTER":"37.7640","SITE":"AFETR","MEAN_ELEMENT_THEORY":"SGP4","OBJECT_ID":"2022-119AW","REV_AT_EPOCH":"130","SEMIMAJOR_AXIS":"6760.293","FILE":"3713130","TIME_SYSTEM":"UTC","GP_ID":"221029905","LAUNCH_DATE":"2022-09-24","NORAD_CAT_ID":"53930","MEAN_MOTION":"15.61904521","REF_FRAME":"TEME","MEAN_ANOMALY":"247.0395","EPHEMERIS_TYPE":"0","MEAN_MOTION_DOT":"-0.01141244","BSTAR":"-0.01424700000000","EPOCH":"2022-12-20T14:00:01.000224","TLE_LINE2":"2 53930  53.2166 184.4774 0001539  37.7640 247.0395 15.61904521  1303","CENTER_NAME":"EARTH","MEAN_MOTION_DDOT":"0.0000000000000","RA_OF_ASC_NODE":"184.4774","DECAY_DATE":null},{"GP_ID":"221030545","LAUNCH_DATE":"2022-09-24","NORAD_CAT_ID":"53931","FILE":"3713130","TIME_SYSTEM":"UTC","REF_FRAME":"TEME","MEAN_MOTION":"15.73236481","TLE_LINE2":"2 53931  53.2113 184.6346 0003891   8.2601 351.8483 15.73236481 14487","CENTER_NAME":"EARTH","MEAN_MOTION_DDOT":"0.0000000000000","MEAN_ANOMALY":"351.8483","EPHEMERIS_TYPE":"0","MEAN_MOTION_DOT":"0.00019464","BSTAR":"0.00014253000000","EPOCH":"2022-12-20T12:23:16.698336","RA_OF_ASC_NODE":"184.6346","DECAY_DATE":null,"OBJECT_TYPE":"PAYLOAD","ELEMENT_SET_NO":"999","ECCENTRICITY":"0.00038910","OBJECT_NAME":"STARLINK-5015","CLASSIFICATION_TYPE":"U","INCLINATION":"53.2113","APOAPSIS":"352.274","PERIAPSIS":"347.038","ARG_OF_PERICENTER":"8.2601","SITE":"AFETR","TLE_LINE1":"1 53931U 22119AX  22354.51616549  .00019464  00000-0  14253-3 0  9991","PERIOD":"91.531","COUNTRY_CODE":"US","RCS_SIZE":"LARGE","OBJECT_ID":"2022-119AX","REV_AT_EPOCH":"1448","SEMIMAJOR_AXIS":"6727.791","MEAN_ELEMENT_THEORY":"SGP4"},{"SITE":"AFETR","ARG_OF_PERICENTER":"14.8621","PERIOD":"91.530","TLE_LINE1":"1 53932U 22119AY  22354.51627885  .00010006  00000-0  75438-4 0  9993","COUNTRY_CODE":"US","RCS_SIZE":"LARGE","OBJECT_ID":"2022-119AY","REV_AT_EPOCH":"1448","SEMIMAJOR_AXIS":"6727.729","MEAN_ELEMENT_THEORY":"SGP4","OBJECT_TYPE":"PAYLOAD","ELEMENT_SET_NO":"999","ECCENTRICITY":"0.00043500","OBJECT_NAME":"STARLINK-4772","CLASSIFICATION_TYPE":"U","INCLINATION":"53.2124","APOAPSIS":"352.521","PERIAPSIS":"346.667","TLE_LINE2":"2 53932  53.2124 184.6458 0004350  14.8621 345.2527 15.73258292 14480","CENTER_NAME":"EARTH","MEAN_MOTION_DDOT":"0.0000000000000","MEAN_ANOMALY":"345.2527","EPHEMERIS_TYPE":"0","MEAN_MOTION_DOT":"0.00010006","BSTAR":"0.00007543800000","EPOCH":"2022-12-20T12:23:26.492640","RA_OF_ASC_NODE":"184.6458","DECAY_DATE":null,"GP_ID":"221030332","LAUNCH_DATE":"2022-09-24","NORAD_CAT_ID":"53932","FILE":"3713130","TIME_SYSTEM":"UTC","REF_FRAME":"TEME","MEAN_MOTION":"15.73258292"},{"REV_AT_EPOCH":"130","OBJECT_ID":"2022-119AZ","SEMIMAJOR_AXIS":"6760.389","MEAN_ELEMENT_THEORY":"SGP4","ARG_OF_PERICENTER":"54.7649","SITE":"AFETR","TLE_LINE1":"1 53933U 22119AZ  22354.58334491 -.01144299  00000-0 -14309-1 0  9991","PERIOD":"92.197","COUNTRY_CODE":"US","RCS_SIZE":"LARGE","INCLINATION":"53.2168","APOAPSIS":"383.128","PERIAPSIS":"381.380","OBJECT_TYPE":"PAYLOAD","ECCENTRICITY":"0.00012930","ELEMENT_SET_NO":"999","OBJECT_NAME":"STARLINK-4782","CLASSIFICATION_TYPE":"U","RA_OF_ASC_NODE":"184.4794","DECAY_DATE":null,"TLE_LINE2":"2 53933  53.2168 184.4794 0001293  54.7649 228.8447 15.61871153  1304","CENTER_NAME":"EARTH","MEAN_MOTION_DDOT":"0.0000000000000","MEAN_ANOMALY":"228.8447","EPHEMERIS_TYPE":"0","BSTAR":"-0.01430900000000","MEAN_MOTION_DOT":"-0.01144299","EPOCH":"2022-12-20T14:00:01.000224","REF_FRAME":"TEME","MEAN_MOTION":"15.61871153","GP_ID":"221029266","NORAD_CAT_ID":"53933","LAUNCH_DATE":"2022-09-24","TIME_SYSTEM":"UTC","FILE":"3713130"},{"PERIOD":"91.531","TLE_LINE1":"1 53934U 22119BA  22354.57958719  .00007056  00000-0  54561-4 0  9999","RCS_SIZE":"LARGE","COUNTRY_CODE":"US","ARG_OF_PERICENTER":"5.2633","SITE":"AFETR","MEAN_ELEMENT_THEORY":"SGP4","OBJECT_ID":"2022-119BA","REV_AT_EPOCH":"1450","SEMIMAJOR_AXIS":"6727.773","CLASSIFICATION_TYPE":"U","OBJECT_TYPE":"PAYLOAD","OBJECT_NAME":"STARLINK-4775","ECCENTRICITY":"0.00038130","ELEMENT_SET_NO":"999","APOAPSIS":"352.204","INCLINATION":"53.2130","PERIAPSIS":"347.073","MEAN_ANOMALY":"354.8426","BSTAR":"0.00005456100000","MEAN_MOTION_DOT":"0.00007056","EPOCH":"2022-12-20T13:54:36.333216","EPHEMERIS_TYPE":"0","TLE_LINE2":"2 53934  53.2130 184.3231 0003813   5.2633 354.8426 15.73242730 14502","MEAN_MOTION_DDOT":"0.0000000000000","CENTER_NAME":"EARTH","RA_OF_ASC_NODE":"184.3231","DECAY_DATE":null,"FILE":"3713130","TIME_SYSTEM":"UTC","GP_ID":"221029479","NORAD_CAT_ID":"53934","LAUNCH_DATE":"2022-09-24","MEAN_MOTION":"15.73242730","REF_FRAME":"TEME"},{"MEAN_ELEMENT_THEORY":"SGP4","REV_AT_EPOCH":"1406","OBJECT_ID":"2022-119BB","SEMIMAJOR_AXIS":"6727.809","PERIOD":"91.531","TLE_LINE1":"1 53935U 22119BB  22354.57938175  .00003385  00000-0  28507-4 0  9996","COUNTRY_CODE":"US","RCS_SIZE":"LARGE","SITE":"AFETR","ARG_OF_PERICENTER":"15.3836","INCLINATION":"53.2136","APOAPSIS":"352.092","PERIAPSIS":"347.256","CLASSIFICATION_TYPE":"U","OBJECT_TYPE":"PAYLOAD","ELEMENT_SET_NO":"999","ECCENTRICITY":"0.00035940","OBJECT_NAME":"STARLINK-5000","RA_OF_ASC_NODE":"184.3223","DECAY_DATE":null,"MEAN_ANOMALY":"344.7293","EPHEMERIS_TYPE":"0","BSTAR":"0.00002850700000","MEAN_MOTION_DOT":"0.00003385","EPOCH":"2022-12-20T13:54:18.583200","TLE_LINE2":"2 53935  53.2136 184.3223 0003594  15.3836 344.7293 15.73230325 14061","CENTER_NAME":"EARTH","MEAN_MOTION_DDOT":"0.0000000000000","MEAN_MOTION":"15.73230325","REF_FRAME":"TEME","TIME_SYSTEM":"UTC","FILE":"3713280","GP_ID":"221032871","NORAD_CAT_ID":"53935","LAUNCH_DATE":"2022-09-24"},{"DECAY_DATE":null,"RA_OF_ASC_NODE":"185.8980","CENTER_NAME":"EARTH","MEAN_MOTION_DDOT":"0.0000000000000","TLE_LINE2":"2 53936  53.2126 185.8980 0003826   4.7067 355.3989 15.73240299 14446","EPHEMERIS_TYPE":"0","MEAN_MOTION_DOT":"0.00007715","BSTAR":"0.00005924300000","EPOCH":"2022-12-20T06:17:04.323840","MEAN_ANOMALY":"355.3989","REF_FRAME":"TEME","MEAN_MOTION":"15.73240299","NORAD_CAT_ID":"53936","LAUNCH_DATE":"2022-09-24","GP_ID":"221030759","TIME_SYSTEM":"UTC","FILE":"3713130","SEMIMAJOR_AXIS":"6727.780","OBJECT_ID":"2022-119BC","REV_AT_EPOCH":"1444","MEAN_ELEMENT_THEORY":"SGP4","SITE":"AFETR","ARG_OF_PERICENTER":"4.7067","COUNTRY_CODE":"US","RCS_SIZE":"LARGE","PERIOD":"91.531","TLE_LINE1":"1 53936U 22119BC  22354.26185560  .00007715  00000-0  59243-4 0  9997","PERIAPSIS":"347.071","INCLINATION":"53.2126","APOAPSIS":"352.219","ELEMENT_SET_NO":"999","ECCENTRICITY":"0.00038260","OBJECT_NAME":"STARLINK-4791","OBJECT_TYPE":"PAYLOAD","CLASSIFICATION_TYPE":"U"},{"SEMIMAJOR_AXIS":"6727.789","REV_AT_EPOCH":"1406","OBJECT_ID":"2022-119BD","MEAN_ELEMENT_THEORY":"SGP4","SITE":"AFETR","ARG_OF_PERICENTER":"7.8464","RCS_SIZE":"LARGE","COUNTRY_CODE":"US","PERIOD":"91.531","TLE_LINE1":"1 53937U 22119BD  22354.57927735  .00005995  00000-0  47041-4 0  9991","PERIAPSIS":"347.368","APOAPSIS":"351.940","INCLINATION":"53.2113","OBJECT_NAME":"STARLINK-4765","ELEMENT_SET_NO":"999","ECCENTRICITY":"0.00033980","OBJECT_TYPE":"PAYLOAD","CLASSIFICATION_TYPE":"U","DECAY_DATE":null,"RA_OF_ASC_NODE":"184.3161","MEAN_MOTION_DDOT":"0.0000000000000","CENTER_NAME":"EARTH","TLE_LINE2":"2 53937  53.2113 184.3161 0003398   7.8464 352.2608 15.73237357 14060","EPOCH":"2022-12-20T13:54:09.563040","MEAN_MOTION_DOT":"0.00005995","BSTAR":"0.00004704100000","EPHEMERIS_TYPE":"0","MEAN_ANOMALY":"352.2608","REF_FRAME":"TEME","MEAN_MOTION":"15.73237357","NORAD_CAT_ID":"53937","LAUNCH_DATE":"2022-09-24","GP_ID":"221036030","TIME_SYSTEM":"UTC","FILE":"3713407"},{"DECAY_DATE":null,"RA_OF_ASC_NODE":"99.0903","EPHEMERIS_TYPE":"0","EPOCH":"2022-12-20T16:21:29.080512","MEAN_MOTION_DOT":"0.00003171","BSTAR":"0.00021717000000","MEAN_ANOMALY":"318.7450","CENTER_NAME":"EARTH","MEAN_MOTION_DDOT":"0.0000000000000","TLE_LINE2":"2 53964  53.2162  99.0903 0001960  41.3690 318.7450 15.08853465 12003","MEAN_MOTION":"15.08853465","REF_FRAME":"TEME","TIME_SYSTEM":"UTC","FILE":"3713208","NORAD_CAT_ID":"53964","LAUNCH_DATE":"2022-10-05","GP_ID":"221031400","MEAN_ELEMENT_THEORY":"SGP4","SEMIMAJOR_AXIS":"6917.839","OBJECT_ID":"2022-125A","REV_AT_EPOCH":"1200","COUNTRY_CODE":"US","RCS_SIZE":"LARGE","TLE_LINE1":"1 53964U 22125A   22354.68158658  .00003171  00000-0  21717-3 0  9995","PERIOD":"95.437","SITE":"AFWTR","ARG_OF_PERICENTER":"41.3690","PERIAPSIS":"538.348","INCLINATION":"53.2162","APOAPSIS":"541.060","CLASSIFICATION_TYPE":"U","ELEMENT_SET_NO":"999","ECCENTRICITY":"0.00019600","OBJECT_NAME":"STARLINK-4633","OBJECT_TYPE":"PAYLOAD"},{"MEAN_MOTION_DDOT":"0.0000000000000","CENTER_NAME":"EARTH","TLE_LINE2":"2 53965  53.2175  99.9621 0002046  36.8128 323.3005 15.08843858 11906","EPOCH":"2022-12-20T11:30:01.835424","MEAN_MOTION_DOT":"0.00002696","BSTAR":"0.00018738000000","EPHEMERIS_TYPE":"0","MEAN_ANOMALY":"323.3005","DECAY_DATE":null,"RA_OF_ASC_NODE":"99.9621","NORAD_CAT_ID":"53965","LAUNCH_DATE":"2022-10-05","GP_ID":"221029908","FILE":"3713130","TIME_SYSTEM":"UTC","REF_FRAME":"TEME","MEAN_MOTION":"15.08843858","ARG_OF_PERICENTER":"36.8128","SITE":"AFWTR","RCS_SIZE":"LARGE","COUNTRY_CODE":"US","PERIOD":"95.437","TLE_LINE1":"1 53965U 22125B   22354.47918791  .00002696  00000-0  18738-3 0  9995","SEMIMAJOR_AXIS":"6917.869","REV_AT_EPOCH":"1190","OBJECT_ID":"2022-125B","MEAN_ELEMENT_THEORY":"SGP4","OBJECT_NAME":"STARLINK-4578","ELEMENT_SET_NO":"999","ECCENTRICITY":"0.00020460","OBJECT_TYPE":"PAYLOAD","CLASSIFICATION_TYPE":"U","PERIAPSIS":"538.318","APOAPSIS":"541.149","INCLINATION":"53.2175"}];
